{"type": "FeatureCollection", "features": [ {"type": "Feature", "properties": {"norad_id": 40697, "name": "SENTINEL-2A", "group": "resource", "lat": -49.57838671078674, "lon": -136.42448871265643, "alt_km": 796.3761359008449, "timestamp": "2025-12-07T03:52:32.127266+00:00", "meta": {"OBJECT_NAME": "SENTINEL-2A", "OBJECT_ID": "2015-028A", "EPOCH": "2025-12-06T15:03:16.377696", "MEAN_MOTION": 14.30823801, "ECCENTRICITY": 0.00010341, "INCLINATION": 98.5701, "RA_OF_ASC_NODE": 53.2471, "ARG_OF_PERICENTER": 94.4458, "MEAN_ANOMALY": 265.6843, "EPHEMERIS_TYPE": 0, "CLASSIFICATION_TYPE": "U", "NORAD_CAT_ID": 40697, "ELEMENT_SET_NO": 999, "REV_AT_EPOCH": 54619, "BSTAR": 0.00014422107, "MEAN_MOTION_DOT": 3.34e-06, "MEAN_MOTION_DDOT": 0}, "tle": {"line1": "1 40697U 15028A   25340.62727289  .00000334  00000+0  14422-3 0  9994", "line2": "2 40697  98.5701  53.2471 0001034  94.4458 265.6843 14.30823801546191"}}, "geometry": {"type": "Point", "coordinates": [-136.42448871265643, -49.57838671078674]}}, {"type": "Feature", "properties": {"norad_id": 40701, "name": "GAOFEN-8", "group": "resource", "lat": -77.33671458023198, "lon": -163.99501080144512, "alt_km": 462.6882175990113, "timestamp": "2025-12-07T03:52:32.127277+00:00", "meta": {"OBJECT_NAME": "GAOFEN-8", "OBJECT_ID": "2015-030A", "EPOCH": "2025-12-06T14:10:20.506368", "MEAN_MOTION": 15.38243431, "ECCENTRICITY": 0.00113143, "INCLINATION": 97.6908, "RA_OF_ASC_NODE": 158.4329, "ARG_OF_PERICENTER": 159.6719, "MEAN_ANOMALY": 200.4978, "EPHEMERIS_TYPE": 0, "CLASSIFICATION_TYPE": "U", "NORAD_CAT_ID": 40701, "ELEMENT_SET_NO": 999, "REV_AT_EPOCH": 58176, "BSTAR": 0.00078234315, "MEAN_MOTION_DOT": 0.00029528, "MEAN_MOTION_DDOT": 0}, "tle": {"line1": "1 40701U 15030A   25340.59051512  .00029528  00000+0  78234-3 0  9995", "line2": "2 40701  97.6908 158.4329 0011314 159.6719 200.4978 15.38243431581764"}}, "geometry": {"type": "Point", "coordinates": [-163.99501080144512, -77.33671458023198]}}, {"type": "Feature", "properties": {"norad_id": 40718, "name": "CARBONITE 1 (CBNT-1)", "group": "resource", "lat": -66.90788536386395, "lon": -35.898754553165766, "alt_km": 621.4845719335708, "timestamp": "2025-12-07T03:52:32.127288+00:00", "meta": {"OBJECT_NAME": "CARBONITE 1 (CBNT-1)", "OBJECT_ID": "2015-032D", "EPOCH": "2025-12-06T13:48:10.492416", "MEAN_MOTION": 14.82699456, "ECCENTRICITY": 0.00140063, "INCLINATION": 97.6401, "RA_OF_ASC_NODE": 161.891, "ARG_OF_PERICENTER": 202.0691, "MEAN_ANOMALY": 157.9922, "EPHEMERIS_TYPE": 0, "CLASSIFICATION_TYPE": "U", "NORAD_CAT_ID": 40718, "ELEMENT_SET_NO": 999, "REV_AT_EPOCH": 56079, "BSTAR": 0.00054240192, "MEAN_MOTION_DOT": 4.334e-05, "MEAN_MOTION_DDOT": 0}, "tle": {"line1": "1 40718U 15032D   25340.57512144  .00004334  00000+0  54240-3 0  9995", "line2": "2 40718  97.6401 161.8910 0014006 202.0691 157.9922 14.82699456560792"}}, "geometry": {"type": "Point", "coordinates": [-35.898754553165766, -66.90788536386395]}}, {"type": "Feature", "properties": {"norad_id": 40878, "name": "YAOGAN-27", "group": "resource", "lat": 46.75351563765953, "lon": -39.889720390087355, "alt_km": 1197.2671370544658, "timestamp": "2025-12-07T03:52:32.127299+00:00", "meta": {"OBJECT_NAME": "YAOGAN-27", "OBJECT_ID": "2015-040A", "EPOCH": "2025-12-06T14:51:44.628192", "MEAN_MOTION": 13.16059963, "ECCENTRICITY": 0.00076872, "INCLINATION": 100.1007, "RA_OF_ASC_NODE": 330.5163, "ARG_OF_PERICENTER": 301.7897, "MEAN_ANOMALY": 58.2468, "EPHEMERIS_TYPE": 0, "CLASSIFICATION_TYPE": "U", "NORAD_CAT_ID": 40878, "ELEMENT_SET_NO": 999, "REV_AT_EPOCH": 49233, "BSTAR": 0.00014322329, "MEAN_MOTION_DOT": 1.2e-07, "MEAN_MOTION_DDOT": 0}, "tle": {"line1": "1 40878U 15040A   25340.61926653  .00000012  00000+0  14322-3 0  9996", "line2": "2 40878 100.1007 330.5163 0007687 301.7897  58.2468 13.16059963492339"}}, "geometry": {"type": "Point", "coordinates": [-39.889720390087355, 46.75351563765953]}}, {"type": "Feature", "properties": {"norad_id": 40894, "name": "GAOFEN-9 01", "group": "resource", "lat": 4.5216315334208765, "lon": -159.03266253284667, "alt_km": 635.2406650995044, "timestamp": "2025-12-07T03:52:32.127310+00:00", "meta": {"OBJECT_NAME": "GAOFEN-9 01", "OBJECT_ID": "2015-047A", "EPOCH": "2025-12-06T14:07:47.014176", "MEAN_MOTION": 14.82399375, "ECCENTRICITY": 0.00287961, "INCLINATION": 97.6547, "RA_OF_ASC_NODE": 19.8099, "ARG_OF_PERICENTER": 53.7638, "MEAN_ANOMALY": 306.6231, "EPHEMERIS_TYPE": 0, "CLASSIFICATION_TYPE": "U", "NORAD_CAT_ID": 40894, "ELEMENT_SET_NO": 999, "REV_AT_EPOCH": 55165, "BSTAR": 0.00032056583, "MEAN_MOTION_DOT": 2.535e-05, "MEAN_MOTION_DDOT": 0}, "tle": {"line1": "1 40894U 15047A   25340.58873859  .00002535  00000+0  32057-3 0  9993", "line2": "2 40894  97.6547  19.8099 0028796  53.7638 306.6231 14.82399375551659"}}, "geometry": {"type": "Point", "coordinates": [-159.03266253284667, 4.5216315334208765]}}, {"type": "Feature", "properties": {"norad_id": 41026, "name": "YAOGAN-28", "group": "resource", "lat": -27.034531689944565, "lon": -64.6284613867586, "alt_km": 495.1817224522156, "timestamp": "2025-12-07T03:52:32.127320+00:00", "meta": {"OBJECT_NAME": "YAOGAN-28", "OBJECT_ID": "2015-064A", "EPOCH": "2025-12-06T15:56:28.099968", "MEAN_MOTION": 15.24200159, "ECCENTRICITY": 0.00120797, "INCLINATION": 97.2808, "RA_OF_ASC_NODE": 118.6292, "ARG_OF_PERICENTER": 146.0776, "MEAN_ANOMALY": 214.1237, "EPHEMERIS_TYPE": 0, "CLASSIFICATION_TYPE": "U", "NORAD_CAT_ID": 41026, "ELEMENT_SET_NO": 999, "REV_AT_EPOCH": 56132, "BSTAR": 0.00064057728, "MEAN_MOTION_DOT": 0.00015588, "MEAN_MOTION_DDOT": 0}, "tle": {"line1": "1 41026U 15064A   25340.66421412  .00015588  00000+0  64058-3 0  9991", "line2": "2 41026  97.2808 118.6292 0012079 146.0776 214.1237 15.24200159561324"}}, "geometry": {"type": "Point", "coordinates": [-64.6284613867586, -27.034531689944565]}}, {"type": "Feature", "properties": {"norad_id": 41038, "name": "YAOGAN-29", "group": "resource", "lat": 52.5422756777063, "lon": -6.2923284793506005, "alt_km": 615.1822487913123, "timestamp": "2025-12-07T03:52:32.127331+00:00", "meta": {"OBJECT_NAME": "YAOGAN-29", "OBJECT_ID": "2015-069A", "EPOCH": "2025-12-06T14:40:49.496736", "MEAN_MOTION": 14.82872443, "ECCENTRICITY": 5.064e-05, "INCLINATION": 98.0223, "RA_OF_ASC_NODE": 3.7635, "ARG_OF_PERICENTER": 357.5326, "MEAN_ANOMALY": 2.5885, "EPHEMERIS_TYPE": 0, "CLASSIFICATION_TYPE": "U", "NORAD_CAT_ID": 41038, "ELEMENT_SET_NO": 999, "REV_AT_EPOCH": 54208, "BSTAR": 0.00012119521, "MEAN_MOTION_DOT": 9.28e-06, "MEAN_MOTION_DDOT": 0}, "tle": {"line1": "1 41038U 15069A   25340.61168399  .00000928  00000+0  12120-3 0  9991", "line2": "2 41038  98.0223   3.7635 0000506 357.5326   2.5885 14.82872443542088"}}, "geometry": {"type": "Point", "coordinates": [-6.2923284793506005, 52.5422756777063]}}, {"type": "Feature", "properties": {"norad_id": 41167, "name": "KENT RIDGE 1", "group": "resource", "lat": 9.186231600611922, "lon": 35.324789462264356, "alt_km": 497.0732419632368, "timestamp": "2025-12-07T03:52:32.127342+00:00", "meta": {"OBJECT_NAME": "KENT RIDGE 1", "OBJECT_ID": "2015-077B", "EPOCH": "2025-12-06T09:57:02.267712", "MEAN_MOTION": 15.21561581, "ECCENTRICITY": 0.0008588, "INCLINATION": 14.9797, "RA_OF_ASC_NODE": 258.0748, "ARG_OF_PERICENTER": 41.1428, "MEAN_ANOMALY": 318.9541, "EPHEMERIS_TYPE": 0, "CLASSIFICATION_TYPE": "U", "NORAD_CAT_ID": 41167, "ELEMENT_SET_NO": 999, "REV_AT_EPOCH": 55167, "BSTAR": 0.00030461314, "MEAN_MOTION_DOT": 7.844e-05, "MEAN_MOTION_DDOT": 0}, "tle": {"line1": "1 41167U 15077B   25340.41460958  .00007844  00000+0  30461-3 0  9999", "line2": "2 41167  14.9797 258.0748 0008588  41.1428 318.9541 15.21561581551671"}}, "geometry": {"type": "Point", "coordinates": [35.324789462264356, 9.186231600611922]}}, {"type": "Feature", "properties": {"norad_id": 41194, "name": "GAOFEN-4", "group": "resource", "lat": 0.029061379708342633, "lon": -119.947398915795, "alt_km": 35776.92082126296, "timestamp": "2025-12-07T03:52:32.127355+00:00", "meta": {"OBJECT_NAME": "GAOFEN-4", "OBJECT_ID": "2015-083A", "EPOCH": "2025-12-06T12:27:19.033056", "MEAN_MOTION": 1.00272149, "ECCENTRICITY": 0.00036167, "INCLINATION": 0.1539, "RA_OF_ASC_NODE": 80.9284, "ARG_OF_PERICENTER": 105.9328, "MEAN_ANOMALY": 181.2288, "EPHEMERIS_TYPE": 0, "CLASSIFICATION_TYPE": "U", "NORAD_CAT_ID": 41194, "ELEMENT_SET_NO": 999, "REV_AT_EPOCH": 3659, "BSTAR": 0, "MEAN_MOTION_DOT": -3.28e-06, "MEAN_MOTION_DDOT": 0}, "tle": {"line1": "1 41194U 15083A   25340.51897029 -.00000328  00000+0  00000+0 0  9993", "line2": "2 41194   0.1539  80.9284 0003616 105.9328 181.2288  1.00272149 36593"}}, "geometry": {"type": "Point", "coordinates": [-119.947398915795, 0.029061379708342633]}}, {"type": "Feature", "properties": {"norad_id": 41240, "name": "JASON-3", "group": "resource", "lat": 14.814574597753255, "lon": 176.3063121310267, "alt_km": 1312.2991114903334, "timestamp": "2025-12-07T03:52:32.127367+00:00", "meta": {"OBJECT_NAME": "JASON-3", "OBJECT_ID": "2016-002A", "EPOCH": "2025-12-06T14:44:34.484928", "MEAN_MOTION": 12.87626228, "ECCENTRICITY": 0.00071268, "INCLINATION": 66.0391, "RA_OF_ASC_NODE": 170.7026, "ARG_OF_PERICENTER": 270.419, "MEAN_ANOMALY": 89.6012, "EPHEMERIS_TYPE": 0, "CLASSIFICATION_TYPE": "U", "NORAD_CAT_ID": 41240, "ELEMENT_SET_NO": 999, "REV_AT_EPOCH": 46245, "BSTAR": 6.7157426e-05, "MEAN_MOTION_DOT": -4.5e-07, "MEAN_MOTION_DDOT": 0}, "tle": {"line1": "1 41240U 16002A   25340.61428802 -.00000045  00000+0  67157-4 0  9994", "line2": "2 41240  66.0391 170.7026 0007126 270.4190  89.6012 12.87626228462451"}}, "geometry": {"type": "Point", "coordinates": [176.3063121310267, 14.814574597753255]}}]}